{"type": "FeatureCollection", "features": [ {"type": "Feature", "properties": {"norad_id": 33492, "name": "GOSAT (IBUKI)", "group": "resource", "lat": 42.51199193111423, "lon": -64.9254211077673, "alt_km": 664.8183335709928, "timestamp": "2025-12-25T03:55:55.962957+00:00", "meta": {"OBJECT_NAME": "GOSAT (IBUKI)", "OBJECT_ID": "2009-002A", "EPOCH": "2025-12-24T19:07:43.908672", "MEAN_MOTION": 14.67547502, "ECCENTRICITY": 0.0001028, "INCLINATION": 98.0771, "RA_OF_ASC_NODE": 107.2329, "ARG_OF_PERICENTER": 104.9682, "MEAN_ANOMALY": 255.1636, "EPHEMERIS_TYPE": 0, "CLASSIFICATION_TYPE": "U", "NORAD_CAT_ID": 33492, "ELEMENT_SET_NO": 999, "REV_AT_EPOCH": 90588, "BSTAR": 0.00015571, "MEAN_MOTION_DOT": 8.35e-06, "MEAN_MOTION_DDOT": 0}, "tle": {"line1": "1 33492U 09002A   25358.79703598  .00000835  00000+0  15571-3 0  9990", "line2": "2 33492  98.0771 107.2329 0001028 104.9682 255.1636 14.67547502905889"}}, "geometry": {"type": "Point", "coordinates": [-64.9254211077673, 42.51199193111423]}}, {"type": "Feature", "properties": {"norad_id": 35681, "name": "DEIMOS-1", "group": "resource", "lat": -5.725241387130073, "lon": -21.589528651307035, "alt_km": 650.0001542086229, "timestamp": "2025-12-25T03:55:55.962969+00:00", "meta": {"OBJECT_NAME": "DEIMOS-1", "OBJECT_ID": "2009-041A", "EPOCH": "2025-12-24T20:34:50.691360", "MEAN_MOTION": 14.74969781, "ECCENTRICITY": 0.000247, "INCLINATION": 97.7155, "RA_OF_ASC_NODE": 158.8973, "ARG_OF_PERICENTER": 60.6805, "MEAN_ANOMALY": 299.4651, "EPHEMERIS_TYPE": 0, "CLASSIFICATION_TYPE": "U", "NORAD_CAT_ID": 35681, "ELEMENT_SET_NO": 999, "REV_AT_EPOCH": 88118, "BSTAR": 8.8991e-05, "MEAN_MOTION_DOT": 5.51e-06, "MEAN_MOTION_DDOT": 0}, "tle": {"line1": "1 35681U 09041A   25358.85753115  .00000551  00000+0  88991-4 0  9994", "line2": "2 35681  97.7155 158.8973 0002470  60.6805 299.4651 14.74969781881186"}}, "geometry": {"type": "Point", "coordinates": [-21.589528651307035, -5.725241387130073]}}, {"type": "Feature", "properties": {"norad_id": 35682, "name": "DUBAISAT-1", "group": "resource", "lat": 72.57165348090244, "lon": -23.79740636291897, "alt_km": 645.6048826831075, "timestamp": "2025-12-25T03:55:55.962984+00:00", "meta": {"OBJECT_NAME": "DUBAISAT-1", "OBJECT_ID": "2009-041B", "EPOCH": "2025-12-24T19:18:44.364096", "MEAN_MOTION": 14.74635841, "ECCENTRICITY": 0.0009274, "INCLINATION": 97.9798, "RA_OF_ASC_NODE": 129.3074, "ARG_OF_PERICENTER": 271.0818, "MEAN_ANOMALY": 88.9328, "EPHEMERIS_TYPE": 0, "CLASSIFICATION_TYPE": "U", "NORAD_CAT_ID": 35682, "ELEMENT_SET_NO": 999, "REV_AT_EPOCH": 87939, "BSTAR": 0.00019946, "MEAN_MOTION_DOT": 1.281e-05, "MEAN_MOTION_DDOT": 0}, "tle": {"line1": "1 35682U 09041B   25358.80468014  .00001281  00000+0  19946-3 0  9995", "line2": "2 35682  97.9798 129.3074 0009274 271.0818  88.9328 14.74635841879397"}}, "geometry": {"type": "Point", "coordinates": [-23.79740636291897, 72.57165348090244]}}, {"type": "Feature", "properties": {"norad_id": 35931, "name": "OCEANSAT-2", "group": "resource", "lat": 6.273168276452822, "lon": 179.41438167795351, "alt_km": 908.0974682779861, "timestamp": "2025-12-25T03:55:55.962995+00:00", "meta": {"OBJECT_NAME": "OCEANSAT-2", "OBJECT_ID": "2009-051A", "EPOCH": "2025-12-24T21:57:32.455872", "MEAN_MOTION": 13.99622883, "ECCENTRICITY": 0.0015899, "INCLINATION": 98.2218, "RA_OF_ASC_NODE": 358.2801, "ARG_OF_PERICENTER": 13.0318, "MEAN_ANOMALY": 347.1257, "EPHEMERIS_TYPE": 0, "CLASSIFICATION_TYPE": "U", "NORAD_CAT_ID": 35931, "ELEMENT_SET_NO": 999, "REV_AT_EPOCH": 85495, "BSTAR": 3.6407e-06, "MEAN_MOTION_DOT": -3.2e-07, "MEAN_MOTION_DDOT": 0}, "tle": {"line1": "1 35931U 09051A   25358.91495898 -.00000032  00000+0  36407-5 0  9992", "line2": "2 35931  98.2218 358.2801 0015899  13.0318 347.1257 13.99622883854959"}}, "geometry": {"type": "Point", "coordinates": [179.41438167795351, 6.273168276452822]}}, {"type": "Feature", "properties": {"norad_id": 35946, "name": "WORLDVIEW-2 (WV-2)", "group": "resource", "lat": -16.92756058018537, "lon": -112.52397676300068, "alt_km": 773.9920694224857, "timestamp": "2025-12-25T03:55:55.963006+00:00", "meta": {"OBJECT_NAME": "WORLDVIEW-2 (WV-2)", "OBJECT_ID": "2009-055A", "EPOCH": "2025-12-24T18:40:03.691200", "MEAN_MOTION": 14.37729203, "ECCENTRICITY": 0.0004734, "INCLINATION": 98.4773, "RA_OF_ASC_NODE": 69.697, "ARG_OF_PERICENTER": 40.974, "MEAN_ANOMALY": 319.1802, "EPHEMERIS_TYPE": 0, "CLASSIFICATION_TYPE": "U", "NORAD_CAT_ID": 35946, "ELEMENT_SET_NO": 999, "REV_AT_EPOCH": 85058, "BSTAR": 7.2199e-05, "MEAN_MOTION_DOT": 1.74e-06, "MEAN_MOTION_DDOT": 0}, "tle": {"line1": "1 35946U 09055A   25358.77782050  .00000174  00000+0  72199-4 0  9998", "line2": "2 35946  98.4773  69.6970 0004734  40.9740 319.1802 14.37729203850584"}}, "geometry": {"type": "Point", "coordinates": [-112.52397676300068, -16.92756058018537]}}, {"type": "Feature", "properties": {"norad_id": 36036, "name": "SMOS", "group": "resource", "lat": -36.996906242362016, "lon": -169.5499863283054, "alt_km": 766.0269690939867, "timestamp": "2025-12-25T03:55:55.963016+00:00", "meta": {"OBJECT_NAME": "SMOS", "OBJECT_ID": "2009-059A", "EPOCH": "2025-12-24T18:05:54.245184", "MEAN_MOTION": 14.39751659, "ECCENTRICITY": 0.000105, "INCLINATION": 98.4381, "RA_OF_ASC_NODE": 183.6247, "ARG_OF_PERICENTER": 83.5251, "MEAN_ANOMALY": 276.6056, "EPHEMERIS_TYPE": 0, "CLASSIFICATION_TYPE": "U", "NORAD_CAT_ID": 36036, "ELEMENT_SET_NO": 999, "REV_AT_EPOCH": 84835, "BSTAR": 0.0001365, "MEAN_MOTION_DOT": 3.84e-06, "MEAN_MOTION_DDOT": 0}, "tle": {"line1": "1 36036U 09059A   25358.75410006  .00000384  00000+0  13650-3 0  9999", "line2": "2 36036  98.4381 183.6247 0001050  83.5251 276.6056 14.39751659848354"}}, "geometry": {"type": "Point", "coordinates": [-169.5499863283054, -36.996906242362016]}}, {"type": "Feature", "properties": {"norad_id": 36110, "name": "YAOGAN-7", "group": "resource", "lat": 43.63668170041602, "lon": -126.85925298767565, "alt_km": 648.701052147374, "timestamp": "2025-12-25T03:55:55.963027+00:00", "meta": {"OBJECT_NAME": "YAOGAN-7", "OBJECT_ID": "2009-069A", "EPOCH": "2025-12-24T16:21:24.062400", "MEAN_MOTION": 14.77749162, "ECCENTRICITY": 0.0023448, "INCLINATION": 98.0293, "RA_OF_ASC_NODE": 240.3955, "ARG_OF_PERICENTER": 240.5745, "MEAN_ANOMALY": 119.3125, "EPHEMERIS_TYPE": 0, "CLASSIFICATION_TYPE": "U", "NORAD_CAT_ID": 36110, "ELEMENT_SET_NO": 999, "REV_AT_EPOCH": 86385, "BSTAR": 9.5714e-05, "MEAN_MOTION_DOT": 6.36e-06, "MEAN_MOTION_DDOT": 0}, "tle": {"line1": "1 36110U 09069A   25358.68152850  .00000636  00000+0  95714-4 0  9997", "line2": "2 36110  98.0293 240.3955 0023448 240.5745 119.3125 14.77749162863850"}}, "geometry": {"type": "Point", "coordinates": [-126.85925298767565, 43.63668170041602]}}, {"type": "Feature", "properties": {"norad_id": 36605, "name": "TANDEM-X", "group": "resource", "lat": -21.21038697277674, "lon": 7.271553202641733, "alt_km": 514.2708080244402, "timestamp": "2025-12-25T03:55:55.963037+00:00", "meta": {"OBJECT_NAME": "TANDEM-X", "OBJECT_ID": "2010-030A", "EPOCH": "2025-12-24T13:47:55.228128", "MEAN_MOTION": 15.19151393, "ECCENTRICITY": 0.0001774, "INCLINATION": 97.4454, "RA_OF_ASC_NODE": 3.7821, "ARG_OF_PERICENTER": 94.5594, "MEAN_ANOMALY": 265.5843, "EPHEMERIS_TYPE": 0, "CLASSIFICATION_TYPE": "U", "NORAD_CAT_ID": 36605, "ELEMENT_SET_NO": 999, "REV_AT_EPOCH": 86013, "BSTAR": 4.5827e-05, "MEAN_MOTION_DOT": 8.95e-06, "MEAN_MOTION_DDOT": 0}, "tle": {"line1": "1 36605U 10030A   25358.57494477  .00000895  00000+0  45827-4 0  9995", "line2": "2 36605  97.4454   3.7821 0001774  94.5594 265.5843 15.19151393860130"}}, "geometry": {"type": "Point", "coordinates": [7.271553202641733, -21.21038697277674]}}, {"type": "Feature", "properties": {"norad_id": 36795, "name": "CARTOSAT-2B", "group": "resource", "lat": 15.33814932845969, "lon": 45.63891335593516, "alt_km": 626.0717650678025, "timestamp": "2025-12-25T03:55:55.963048+00:00", "meta": {"OBJECT_NAME": "CARTOSAT-2B", "OBJECT_ID": "2010-035A", "EPOCH": "2025-12-24T21:21:59.682240", "MEAN_MOTION": 14.78740797, "ECCENTRICITY": 0.001258, "INCLINATION": 97.7832, "RA_OF_ASC_NODE": 47.5243, "ARG_OF_PERICENTER": 40.6055, "MEAN_ANOMALY": 319.6093, "EPHEMERIS_TYPE": 0, "CLASSIFICATION_TYPE": "U", "NORAD_CAT_ID": 36795, "ELEMENT_SET_NO": 999, "REV_AT_EPOCH": 83409, "BSTAR": 7.5609e-05, "MEAN_MOTION_DOT": 5.06e-06, "MEAN_MOTION_DDOT": 0}, "tle": {"line1": "1 36795U 10035A   25358.89027410  .00000506  00000+0  75609-4 0  9994", "line2": "2 36795  97.7832  47.5243 0012580  40.6055 319.6093 14.78740797834098"}}, "geometry": {"type": "Point", "coordinates": [45.63891335593516, 15.33814932845969]}}, {"type": "Feature", "properties": {"norad_id": 36834, "name": "YAOGAN-10", "group": "resource", "lat": -0.7833280358605532, "lon": 18.9999827728972, "alt_km": 617.6410414043894, "timestamp": "2025-12-25T03:55:55.963059+00:00", "meta": {"OBJECT_NAME": "YAOGAN-10", "OBJECT_ID": "2010-038A", "EPOCH": "2025-12-24T21:59:59.080128", "MEAN_MOTION": 14.84653678, "ECCENTRICITY": 0.0001446, "INCLINATION": 97.9131, "RA_OF_ASC_NODE": 18.6457, "ARG_OF_PERICENTER": 81.2245, "MEAN_ANOMALY": 37.7807, "EPHEMERIS_TYPE": 0, "CLASSIFICATION_TYPE": "U", "NORAD_CAT_ID": 36834, "ELEMENT_SET_NO": 999, "REV_AT_EPOCH": 83134, "BSTAR": 0.00031814, "MEAN_MOTION_DOT": 2.637e-05, "MEAN_MOTION_DDOT": 0}, "tle": {"line1": "1 36834U 10038A   25358.91665602  .00002637  00000+0  31814-3 0  9991", "line2": "2 36834  97.9131  18.6457 0001446  81.2245  37.7807 14.84653678831347"}}, "geometry": {"type": "Point", "coordinates": [18.9999827728972, -0.7833280358605532]}}]}